NORAD_CAT_ID,OBJECT_NAME,OBJECT_TYPE,EPOCH,MEAN_MOTION,ECCENTRICITY,INCLINATION,RA_OF_ASC_NODE,ARG_OF_PERICENTER,MEAN_ANOMALY,BSTAR,MEAN_MOTION_DOT,MEAN_MOTION_DDOT,TLE_LINE0,TLE_LINE1,TLE_LINE2,SEMIMAJOR_AXIS,PERIOD,APOGEE,PERIGEE,DECAYED
54766.0,STARLINK-5471,PAYLOAD,2024-02-25 12:08:49,15.08852751,0.0001545,53.2162,140.394,96.6508,263.466,3.3025e-05,2.38e-06,0.0,0 STARLINK-5471,1 54766U 22175J   24056.50613259  .00000238  00000-0  33025-4 0  9993,2 54766  53.2162 140.3940 0001545  96.6508 263.4660 15.08852751 65560,6917.841,95.437,540.775,538.638,0.0
54766.0,STARLINK-5471,PAYLOAD,2024-02-25 15:19:35,15.08854675,0.0001596,53.2167,139.7988,99.2942,260.8231,5.4148e-05,5.74e-06,0.0,0 STARLINK-5471,1 54766U 22175J   24056.63860997  .00000574  00000-0  54148-4 0  9992,2 54766  53.2167 139.7988 0001596  99.2942 260.8231 15.08854675 67740,6917.836,95.437,540.805,538.596,0.0
54766.0,STARLINK-5471,PAYLOAD,2024-02-26 10:24:14,15.0884231,0.0001719,53.2167,136.2308,103.8541,256.2643,0.00010179,1.332e-05,0.0,0 STARLINK-5471,1 54766U 22175J   24057.43349653  .00001332  00000-0  10179-3 0  9990,2 54766  53.2167 136.2308 0001719 103.8541 256.2643 15.08842310 65705,6917.873,95.437,540.928,538.549,0.0
54766.0,STARLINK-5471,PAYLOAD,2024-02-26 15:10:23,15.0884543,0.0001722,53.2167,135.3386,99.9378,260.1809,0.0001132,1.514e-05,0.0,0 STARLINK-5471,1 54766U 22175J   24057.63221439  .00001514  00000-0  11320-3 0  9994,2 54766  53.2167 135.3386 0001722  99.9378 260.1809 15.08845430 67894,6917.864,95.437,540.92,538.538,0.0
54766.0,STARLINK-5471,PAYLOAD,2024-02-27 11:50:24,15.08839541,0.0001391,53.2167,131.4732,88.7485,271.3667,-3.3248e-05,-8.17e-06,0.0,0 STARLINK-5471,1 54766U 22175J   24058.49334482 -.00000817  00000-0 -33248-4 0  9993,2 54766  53.2167 131.4732 0001391  88.7485 271.3667 15.08839541 65860,6917.882,95.438,540.709,538.785,0.0
54766.0,STARLINK-5471,PAYLOAD,2024-02-27 21:22:43,15.08840494,0.0001417,53.2171,129.6911,92.627,267.4884,-6.9684e-05,-1.397e-05,0.0,0 STARLINK-5471,1 54766U 22175J   24058.89078526 -.00001397  00000-0 -69684-4 0  9998,2 54766  53.2171 129.6911 0001417  92.6270 267.4884 15.08840494 68081,6917.879,95.438,540.724,538.764,0.0
54766.0,STARLINK-5471,PAYLOAD,2024-02-28 13:16:34,15.08844029,0.0001792,53.2167,126.7173,115.2449,244.8729,0.00010747,1.423e-05,0.0,0 STARLINK-5471,1 54766U 22175J   24059.55318159  .00001423  00000-0  10747-3 0  9994,2 54766  53.2167 126.7173 0001792 115.2449 244.8729 15.08844029 66027,6917.868,95.437,540.973,538.493,0.0
54766.0,STARLINK-5471,PAYLOAD,2024-02-28 21:13:30,15.08844896,0.000141,53.2166,125.2302,83.2919,276.8234,4.2294e-05,3.85e-06,0.0,0 STARLINK-5471,1 54766U 22175J   24059.88438212  .00000385  00000-0  42294-4 0  9992,2 54766  53.2166 125.2302 0001410  83.2919 276.8234 15.08844896 68230,6917.865,95.437,540.706,538.755,0.0
54766.0,STARLINK-5471,PAYLOAD,2024-02-29 13:07:22,15.08838038,0.0001504,53.2175,122.2582,96.4648,263.6516,0.00015577,2.192e-05,0.0,0 STARLINK-5471,1 54766U 22175J   24060.54678851  .00002192  00000-0  15577-3 0  9993,2 54766  53.2175 122.2582 0001504  96.4648 263.6516 15.08838038 66175,6917.886,95.438,540.792,538.711,0.0
54766.0,STARLINK-5471,PAYLOAD,2024-02-29 21:04:18,15.08835056,0.0001656,53.218,120.7709,88.6012,271.517,7.9164e-05,9.72e-06,0.0,0 STARLINK-5471,1 54766U 22175J   24060.87799309  .00000972  00000-0  79164-4 0  9998,2 54766  53.2180 120.7709 0001656  88.6012 271.5170 15.08835056 68387,6917.896,95.438,540.906,538.615,0.0
54766.0,STARLINK-5471,PAYLOAD,2024-03-01 12:58:09,15.08841822,0.0001585,53.2178,117.7938,92.134,267.9834,0.00010559,1.393e-05,0.0,0 STARLINK-5471,1 54766U 22175J   24061.54038868  .00001393  00000-0  10559-3 0  9999,2 54766  53.2178 117.7938 0001585  92.1340 267.9834 15.08841822 68484,6917.875,95.437,540.836,538.643,0.0
54766.0,STARLINK-5471,PAYLOAD,2024-03-02 09:38:09,15.08849519,0.0001661,53.2174,113.9271,107.7132,252.4041,0.00010884,1.445e-05,0.0,0 STARLINK-5471,1 54766U 22175J   24062.40150219  .00001445  00000-0  10884-3 0  9999,2 54766  53.2174 113.9271 0001661 107.7132 252.4041 15.08849519 66450,6917.851,95.437,540.865,538.567,0.0
54766.0,STARLINK-5471,PAYLOAD,2024-03-03 03:07:25,15.08837248,0.0001687,53.2158,110.6607,75.1104,285.0075,7.8945e-05,9.68e-06,0.0,0 STARLINK-5471,1 54766U 22175J   24063.13015231  .00000968  00000-0  78945-4 0  9996,2 54766  53.2158 110.6607 0001687  75.1104 285.0075 15.08837248 66561,6917.889,95.438,540.921,538.587,0.0
54766.0,STARLINK-5471,PAYLOAD,2024-03-03 09:28:57,15.08833533,0.0001355,53.2155,109.4695,85.4754,274.6393,7.4428e-05,8.97e-06,0.0,0 STARLINK-5471,1 54766U 22175J   24063.39511393  .00000897  00000-0  74428-4 0  9997,2 54766  53.2155 109.4695 0001355  85.4754 274.6393 15.08833533 68762,6917.9,95.438,540.703,538.828,0.0
54766.0,STARLINK-5471,PAYLOAD,2024-03-04 02:58:11,15.0886493,0.00018,53.2178,106.1973,86.9046,273.2153,-0.00018904,-3.298e-05,0.0,0 STARLINK-5471,1 54766U 22175J   24064.12374514 -.00003298  00000-0 -18904-3 0  9997,2 54766  53.2178 106.1973 0001800  86.9046 273.2153 15.08864930 66712,6917.804,95.436,540.914,538.424,0.0
54766.0,STARLINK-5471,PAYLOAD,2024-03-04 12:30:30,15.08851358,0.0001719,53.2158,104.4135,87.3827,272.7362,0.00049432,7.59e-05,0.0,0 STARLINK-5471,1 54766U 22175J   24064.52118355  .00007590  00000-0  49432-3 0  9997,2 54766  53.2158 104.4135 0001719  87.3827 272.7362 15.08851358 68934,6917.846,95.437,540.9,538.521,0.0
54766.0,STARLINK-5471,PAYLOAD,2024-03-05 02:48:59,15.08824064,0.0001354,53.216,101.7379,71.5397,288.5742,-7.133e-05,-1.422e-05,0.0,0 STARLINK-5471,1 54766U 22175J   24065.11735985 -.00001422  00000-0 -71330-4 0  9990,2 54766  53.2160 101.7379 0001354  71.5397 288.5742 15.08824064 66860,6917.929,95.439,540.731,538.857,0.0
54766.0,STARLINK-5471,PAYLOAD,2024-03-05 12:21:18,15.08825307,0.0001675,53.2164,99.9527,82.0522,278.066,-0.00019005,-3.31e-05,0.0,0 STARLINK-5471,1 54766U 22175J   24065.51480037 -.00003310  00000-0 -19005-3 0  9997,2 54766  53.2164  99.9527 0001675  82.0522 278.0660 15.08825307 69081,6917.925,95.438,540.949,538.632,0.0
54766.0,STARLINK-5471,PAYLOAD,2024-03-05 18:42:51,15.08830321,0.0001758,53.2172,98.7649,93.6741,266.4452,-1.636e-05,-5.48e-06,0.0,0 STARLINK-5471,1 54766U 22175J   24065.77976093 -.00000548  00000-0 -16360-4 0  9999,2 54766  53.2172  98.7649 0001758  93.6741 266.4452 15.08830321 66961,6917.91,95.438,540.991,538.559,0.0
54766.0,STARLINK-5471,PAYLOAD,2024-03-06 09:01:19,15.08844503,0.0001602,53.2161,96.087,94.2296,265.8879,0.00069626,0.00010812,0.0,0 STARLINK-5471,1 54766U 22175J   24066.37592083  .00010812  00000-0  69626-3 0  9994,2 54766  53.2161  96.0870 0001602  94.2296 265.8879 15.08844503 67050,6917.867,95.437,540.84,538.623,0.0
54766.0,STARLINK-5471,PAYLOAD,2024-03-07 02:30:33,15.08838834,0.0001442,53.2155,92.816,95.3175,264.7981,-0.00012775,-2.32e-05,0.0,0 STARLINK-5471,1 54766U 22175J   24067.10455796 -.00002320  00000-0 -12775-3 0  9995,2 54766  53.2155  92.8160 0001442  95.3175 264.7981 15.08838834 67163,6917.884,95.438,540.747,538.751,0.0
54766.0,STARLINK-5471,PAYLOAD,2024-03-07 08:52:06,15.08845998,0.0001452,53.2157,91.6277,94.5292,265.5866,0.00031692,4.76e-05,0.0,0 STARLINK-5471,1 54766U 22175J   24067.36951774  .00004760  00000-0  31692-3 0  9997,2 54766  53.2157  91.6277 0001452  94.5292 265.5866 15.08845998 69367,6917.862,95.437,540.732,538.723,0.0
54766.0,STARLINK-5471,PAYLOAD,2024-03-08 05:32:07,15.08849366,0.000152,53.2158,87.7627,98.6139,261.5025,0.00064879,0.00010055,0.0,0 STARLINK-5471,1 54766U 22175J   24068.23063881  .00010055  00000-0  64879-3 0  9994,2 54766  53.2158  87.7627 0001520  98.6139 261.5025 15.08849366 67335,6917.852,95.437,540.768,538.665,0.0
54766.0,STARLINK-5471,PAYLOAD,2024-03-08 08:42:53,15.08850034,0.0001504,53.2157,87.168,98.4806,261.6357,0.00057875,8.937e-05,0.0,0 STARLINK-5471,1 54766U 22175J   24068.36311806  .00008937  00000-0  57875-3 0  9995,2 54766  53.2157  87.1680 0001504  98.4806 261.6357 15.08850034 69513,6917.85,95.437,540.755,538.674,0.0
54766.0,STARLINK-5471,PAYLOAD,2024-03-08 18:15:11,15.08852658,0.0001452,53.2151,85.3831,94.8292,265.2866,0.00045732,7e-05,0.0,0 STARLINK-5471,1 54766U 22175J   24068.76055547  .00007000  00000-0  45732-3 0  9995,2 54766  53.2151  85.3831 0001452  94.8292 265.2866 15.08852658 69571,6917.842,95.437,540.711,538.702,0.0
54766.0,STARLINK-5471,PAYLOAD,2024-03-09 05:22:54,15.0884173,0.0001476,53.2154,83.3016,99.013,261.1029,0.00015215,2.134e-05,0.0,0 STARLINK-5471,1 54766U 22175J   24069.22423882  .00002134  00000-0  15215-3 0  9994,2 54766  53.2154  83.3016 0001476  99.0130 261.1029 15.08841730 67484,6917.875,95.437,540.761,538.719,0.0
54766.0,STARLINK-5471,PAYLOAD,2024-03-09 10:09:03,15.08846286,0.0001569,53.2154,82.4094,96.7032,263.4139,0.00032416,4.876e-05,0.0,0 STARLINK-5471,1 54766U 22175J   24069.42295831  .00004876  00000-0  32416-3 0  9994,2 54766  53.2154  82.4094 0001569  96.7032 263.4139 15.08846286 69679,6917.861,95.437,540.812,538.641,0.0
54766.0,STARLINK-5471,PAYLOAD,2024-03-09 18:05:59,15.08849525,0.0001492,53.215,80.9197,95.1568,264.9594,0.00039847,6.061e-05,0.0,0 STARLINK-5471,1 54766U 22175J   24069.75415692  .00006061  00000-0  39847-3 0  9992,2 54766  53.2150  80.9197 0001492  95.1568 264.9594 15.08849525 69720,6917.851,95.437,540.748,538.684,0.0
54766.0,STARLINK-5471,PAYLOAD,2024-03-10 06:49:04,15.08849797,0.0001199,53.2152,78.5415,104.7362,255.3763,0.0005146,7.914e-05,0.0,0 STARLINK-5471,1 54766U 22175J   24070.28407644  .00007914  00000-0  51460-3 0  9993,2 54766  53.2152  78.5415 0001199 104.7362 255.3763 15.08849797 67643,6917.85,95.437,540.545,538.886,0.0
54766.0,STARLINK-5471,PAYLOAD,2024-03-10 17:56:45,15.08867369,0.0001787,53.2168,76.4572,105.4494,254.6695,0.00067405,0.00010464,0.0,0 STARLINK-5471,1 54766U 22175J   24070.74774743  .00010464  00000-0  67405-3 0  9991,2 54766  53.2168  76.4572 0001787 105.4494 254.6695 15.08867369 67717,6917.797,95.436,540.898,538.426,0.0
